     2.100          NAVIGATION                              RINEX VERSION / TYPE
fic2rin                                 08/28/2016 00:04:22 PGM / RUN BY / DATE
                                                            END OF HEADER
25 16  8 27 20  0  0.0 -.234915874898D-03 -.693489710102D-11  .000000000000D+00
     .270000000000D+02  .786250000000D+02  .420088926961D-08  .136217195090D+01
     .393763184547D-05  .557725375984D-02  .411830842495D-05  .515370819473D+04
     .590400000000D+06 -.484287738800D-07  .393798995675D+00 -.931322574615D-08
     .978553523562D+00  .307000000000D+03  .792213964560D+00 -.824498629392D-08
     .223580741607D-09  .100000000000D+01  .191100000000D+04  .000000000000D+00
     .240000000000D+01  .000000000000D+00  .558793544769D-08  .270000000000D+02
     .583206000000D+06  .400000000000D+01
26 16  8 27 20  0  0.0 -.457493588328D-03 -.807176547823D-11  .000000000000D+00
     .830000000000D+02  .828750000000D+02  .451304512930D-08  .808682511753D+00
     .432319939137D-05  .925022293814D-03  .449456274509D-05  .515357147980D+04
     .590400000000D+06 -.298023223877D-07  .383210290750D+00  .186264514923D-08
     .960475469510D+00  .292156250000D+03 -.201884757653D-01 -.832606109958D-08
     .285369029623D-09  .100000000000D+01  .191100000000D+04  .000000000000D+00
     .240000000000D+01  .000000000000D+00  .698491930962D-08  .830000000000D+02
     .583206000000D+06  .400000000000D+01
27 16  8 27 20  0  0.0  .131924171001D-03  .466116034659D-11  .000000000000D+00
     .420000000000D+02 -.773750000000D+02  .446625746612D-08 -.986603825701D+00
    -.401958823204D-05  .380519847386D-02  .368990004063D-05  .515364946747D+04
     .590400000000D+06  .137835741043D-06  .143463368611D+01 -.558793544769D-07
     .971992224795D+00  .312031250000D+03  .347426787880D+00 -.826927301984D-08
    -.639312344211D-10  .100000000000D+01  .191100000000D+04  .000000000000D+00
     .240000000000D+01  .000000000000D+00  .186264514923D-08  .420000000000D+02
     .583206000000D+06  .400000000000D+01
28 16  8 27 20  0  0.0  .547676347196D-03  .284217094304D-11  .000000000000D+00
     .630000000000D+02  .623437500000D+02  .398088010535D-08 -.134132119164D+00
     .323355197906D-05  .198180930456D-01  .460073351860D-05  .515363084412D+04
     .590400000000D+06 -.318512320518D-06  .469423556850D+00  .111758708954D-06
     .989602921871D+00  .310156250000D+03 -.161261938894D+01 -.831998941810D-08
     .291797868838D-09  .100000000000D+01  .191100000000D+04  .000000000000D+00
     .240000000000D+01  .000000000000D+00 -.107102096081D-07  .630000000000D+02
     .583206000000D+06  .400000000000D+01
29 16  8 27 20  0  0.0  .652586575598D-03 -.102318153949D-11  .000000000000D+00
     .220000000000D+02 -.916562500000D+02  .432339437244D-08  .102350126462D+01
    -.490434467793D-05  .619223108515D-03  .505708158016D-05  .515376090431D+04
     .590400000000D+06  .260770320892D-07  .149491403310D+01  .502914190292D-07
     .978049264478D+00  .295500000000D+03  .110168159049D+00 -.814355349740D-08
    -.113576159474D-09  .100000000000D+01  .191100000000D+04  .000000000000D+00
     .240000000000D+01  .000000000000D+00 -.102445483208D-07  .220000000000D+02
     .583206000000D+06  .400000000000D+01
30 16  8 27 20  0  0.0  .147609505802D-03  .181898940355D-11  .000000000000D+00
     .370000000000D+02  .574062500000D+02  .439804033889D-08  .258303723885D+01
     .299140810966D-05  .240018754266D-02  .101048499346D-04  .515378579712D+04
     .590400000000D+06 -.745058059692D-08 -.588993237933D+00 -.372529029846D-08
     .951192429211D+00  .181406250000D+03  .312081209245D+01 -.796318884164D-08
    -.220009164265D-09  .100000000000D+01  .191100000000D+04  .000000000000D+00
     .240000000000D+01  .000000000000D+00  .372529029846D-08  .370000000000D+02
     .583206000000D+06  .400000000000D+01
31 16  8 27 20  0  0.0  .251216348261D-03 -.204636307899D-11  .000000000000D+00
     .110000000000D+03  .634062500000D+02  .389159067180D-08  .232170281860D+01
     .347383320332D-05  .827472086530D-02  .114496797323D-04  .515354707718D+04
     .590400000000D+06 -.204890966415D-07 -.622054983178D+00  .596046447754D-07
     .970199146586D+00  .164218750000D+03 -.384377541382D+00 -.766424781811D-08
    -.280725979078D-09  .100000000000D+01  .191100000000D+04  .000000000000D+00
     .240000000000D+01  .000000000000D+00 -.135041773319D-07  .110000000000D+03
     .583206000000D+06  .400000000000D+01
32 16  8 27 20  0  0.0 -.940202735364D-04 -.133013600134D-10  .000000000000D+00
     .400000000000D+02 -.121250000000D+02  .486913139030D-08 -.594434514915D+00
    -.804662704468D-06  .656320364214D-03  .716373324394D-05  .515363203430D+04
     .590400000000D+06  .372529029846D-07 -.170860719339D+01 -.931322574615D-08
     .958828988859D+00  .240812500000D+03 -.231562571207D+01 -.818319800590D-08
    -.523950396066D-09  .100000000000D+01  .191100000000D+04  .000000000000D+00
     .240000000000D+01  .000000000000D+00  .931322574615D-09  .400000000000D+02
     .583206000000D+06  .400000000000D+01
 5 16  8 27 19 59 44.0 -.951378606260D-04  .261479726760D-11  .000000000000D+00
     .240000000000D+02  .157812500000D+02  .521486007700D-08 -.174833796084D+00
     .791624188423D-06  .469917408191D-02  .709295272827D-05  .515357803345D+04
     .590384000000D+06  .558793544769D-08 -.276228414237D+01  .558793544769D-07
     .946758535173D+00  .233125000000D+03  .487378510734D+00 -.837320592049D-08
     .213937482783D-09  .100000000000D+01  .191100000000D+04  .000000000000D+00
     .240000000000D+01  .000000000000D+00 -.107102096081D-07  .240000000000D+02
     .586446000000D+06  .400000000000D+01
 7 16  8 27 19 59 44.0  .431724824011D-03 -.284217094304D-11  .000000000000D+00
     .310000000000D+02  .556875000000D+02  .406624080382D-08  .249905091296D+01
     .282377004623D-05  .996730232146D-02  .104606151581D-04  .515363912773D+04
     .590384000000D+06 -.137835741043D-06 -.631816374282D+00 -.119209289551D-06
     .965387941106D+00  .180343750000D+03 -.264159895553D+01 -.773353641855D-08
    -.205008539429D-09  .100000000000D+01  .191100000000D+04  .000000000000D+00
     .240000000000D+01  .000000000000D+00 -.111758708954D-07  .310000000000D+02
     .586476000000D+06  .400000000000D+01
 9 16  8 27 19 59 44.0  .194975640625D-03  .727595761418D-11  .000000000000D+00
     .400000000000D+01 -.137500000000D+02  .492806241644D-08 -.109414431178D+01
    -.745058059692D-06  .514558283612D-03  .697001814842D-05  .515379331589D+04
     .590384000000D+06 -.279396772385D-07 -.171046392901D+01 -.372529029846D-08
     .954258502160D+00  .239875000000D+03  .212356500376D+01 -.824177187431D-08
    -.441804117201D-09  .100000000000D+01  .191100000000D+04  .000000000000D+00
     .240000000000D+01  .000000000000D+00  .139698386192D-08  .400000000000D+01
     .587076000000D+06  .400000000000D+01
21 16  8 27 19 59 44.0 -.531118363142D-03 -.568434188608D-12  .000000000000D+00
     .500000000000D+01 -.849687500000D+02  .498556481164D-08  .153439663698D+01
    -.461749732494D-05  .233757647220D-01  .107940286398D-04  .515356882668D+04
     .590384000000D+06 -.311061739922D-06  .245654684490D+01 -.543892383575D-06
     .937330513841D+00  .166000000000D+03 -.176498025149D+01 -.828891669522D-08
     .276082928534D-09  .100000000000D+01  .191100000000D+04  .000000000000D+00
     .240000000000D+01  .000000000000D+00 -.977888703346D-08  .500000000000D+01
     .590256000000D+06  .400000000000D+01
 2 16  8 27 21 59 44.0  .560131389648D-03 -.454747350886D-11  .000000000000D+00
     .420000000000D+02 -.585312500000D+02  .483091551274D-08 -.161189802550D+01
    -.293180346489D-05  .158848388819D-01  .100675970316D-04  .515362664413D+04
     .597584000000D+06  .340864062309D-06  .244519217947D+01  .596046447754D-07
     .944077547614D+00  .171062500000D+03 -.209063368351D+01 -.797247494273D-08
     .244295890190D-09  .100000000000D+01  .191100000000D+04  .000000000000D+00
     .240000000000D+01  .000000000000D+00 -.204890966415D-07  .420000000000D+02
     .590406000000D+06  .400000000000D+01
 5 16  8 27 21 59 44.0 -.951187685132D-04  .261479726760D-11  .000000000000D+00
     .360000000000D+02  .255312500000D+02  .526700510619D-08  .875275252236D+00
     .156275928020D-05  .470047094859D-02  .728107988834D-05  .515358077240D+04
     .597584000000D+06  .689178705215D-07 -.276234491345D+01  .223517417908D-07
     .946760065386D+00  .229843750000D+03  .487513587812D+00 -.842249368781D-08
     .262153776900D-09  .100000000000D+01  .191100000000D+04  .000000000000D+00
     .240000000000D+01  .000000000000D+00 -.107102096081D-07  .360000000000D+02
     .590406000000D+06  .400000000000D+01
 7 16  8 27 21 59 44.0  .431704334915D-03 -.284217094304D-11  .000000000000D+00
     .320000000000D+02  .515937500000D+02  .407909848225D-08 -.273388395047D+01
     .259093940258D-05  .996877136640D-02  .109914690256D-04  .515363630486D+04
     .597584000000D+06 -.298023223877D-07 -.631871668197D+00 -.109896063805D-06
     .965386735661D+00  .168968750000D+03 -.264164934721D+01 -.767210528827D-08
    -.201436962087D-09  .100000000000D+01  .191100000000D+04  .000000000000D+00
     .240000000000D+01  .000000000000D+00 -.111758708954D-07  .320000000000D+02
     .590406000000D+06  .400000000000D+01
 9 16  8 27 21 59 44.0  .195027794689D-03  .727595761418D-11  .000000000000D+00
     .500000000000D+01 -.150937500000D+02  .497163566001D-08 -.449003395822D-01
    -.808387994766D-06  .514006474987D-03  .680424273014D-05  .515379197693D+04
     .597584000000D+06 -.204890966415D-07 -.171052325327D+01 -.130385160446D-07
     .954255311535D+00  .244812500000D+03  .212443241909D+01 -.824355766298D-08
    -.446447167745D-09  .100000000000D+01  .191100000000D+04  .000000000000D+00
     .240000000000D+01  .000000000000D+00  .139698386192D-08  .500000000000D+01
     .590406000000D+06  .400000000000D+01
